STARLINK-32468          
1 62149U 24224L   26068.25273075  .00039213  00000+0  14269-2 0  9990
2 62149  43.0007 160.5338 0000853 242.2543 117.8222 15.27581167 72254
FLOCK 4G-10             
1 62670U 25009BP  26068.70827885  .00013952  00000+0  52624-3 0  9995
2 62670  97.3967 150.5883 0003469 341.4844  18.6269 15.27155944121340
